[{"OBJECT_NAME":"KUIPER-00074","OBJECT_ID":"2025-151F","EPOCH":"2026-03-09T22:00:01.999584","MEAN_MOTION":15.11764307,"ECCENTRICITY":0.0001586,"INCLINATION":51.9043,"RA_OF_ASC_NODE":288.1826,"ARG_OF_PERICENTER":324.5394,"MEAN_ANOMALY":98.5677,"EPHEMERIS_TYPE":0,"CLASSIFICATION_TYPE":"U","NORAD_CAT_ID":64821,"ELEMENT_SET_NO":999,"REV_AT_EPOCH":449,"BSTAR":0.13371806,"MEAN_MOTION_DOT":0.02545787,"MEAN_MOTION_DDOT":0},{"OBJECT_NAME":"STARLINK-35766","OBJECT_ID":"2025-303U","EPOCH":"2026-03-09T01:47:30.481440","MEAN_MOTION":15.27573054,"ECCENTRICITY":0.00018216,"INCLINATION":43.0028,"RA_OF_ASC_NODE":313.9692,"ARG_OF_PERICENTER":282.3192,"MEAN_ANOMALY":77.7455,"EPHEMERIS_TYPE":0,"CLASSIFICATION_TYPE":"U","NORAD_CAT_ID":67181,"ELEMENT_SET_NO":999,"REV_AT_EPOCH":1264,"BSTAR":0.0013757799,"MEAN_MOTION_DOT":0.00037783,"MEAN_MOTION_DDOT":0}]
